P/2016 P1 (PANSTARRS),e,24.3855,319.3041,270.7616,3.202736,0.1719580,0.28808117,198.0138,08/05.0/2024,2000,g 15.0,4.0
# From MPEC 2024-H50
C/2016 Q2 (PANSTARRS),h,05/12.1862/2021,109.3488,322.3387,84.5463,1.003077,7.080553,2000,6.0,4.0
# From MPEC 2022-K19
P/2016 R4 (Gibbs),e,10.8692,168.2791,174.1274,5.335550,0.0799715,0.47523824,234.6946,08/05.0/2024,2000,g 12.5,4.0
# From MPC105543
P/2016 S1 (PANSTARRS),e,94.7386,227.6737,273.1903,8.269586,0.0414456,0.71150044,111.7268,08/05.0/2024,2000,g 12.0,4.0
# From MPC106345
P/2016 WM48 (Lemmon),e,117.6348,59.9539,36.1798,8.173461,0.0421789,0.78380874,114.6114,08/05.0/2024,2000,g 15.0,4.0
# From MPEC 2021-P47
C/2016 X1 (Lemmon),e,26.4689,256.3027,224.5518,1991,0.0000111,0.99620383,0.0000,04/29.4704/2019,2000,g  6.0,4.0
# From MPEC 2022-OB6
C/2017 B3 (LINEAR),e,54.1912,2.2076,284.8128,5244,0.0000026,0.99924978,0.0000,01/30.8017/2019,2000,g  6.0,4.0
# From MPC103847
P/2017 B4 (PANSTARRS),e,20.0584,121.4578,11.0197,4.410520,0.1064068,0.36495152,359.9130,01/05.0/2017,2000,g 14.5,4.0
# From MPEC 2022-OB6
P/2017 D1 (Fuls),e,20.7722,82.1993,8.0141,4.824457,0.0930104,0.43770523,275.4670,08/05.0/2024,2000,g 14.0,4.0
# From MPEC 2022-OB6
P/2017 D4 (PANSTARRS),e,10.5594,264.9094,212.1228,7.542985,0.0475761,0.63020301,137.3773,08/05.0/2024,2000,g 13.0,4.0
# From MPEC 2024-C04
P/2017 G1 (PANSTARRS),e,5.1554,247.1401,225.2333,7.193628,0.0510837,0.65045376,154.8013,08/05.0/2024,2000,g 13.5,4.0
# From MPC108595
P/2017 G2 (PANSTARRS),e,47.9681,79.8974,105.2544,8.040254,0.0432314,0.64825541,112.9944,08/05.0/2024,2000,g 13.0,4.0
# From MPEC 2024-LE0
C/2017 K2 (PANSTARRS),h,12/19.4456/2022,87.6065,88.2246,236.2094,1.000159,1.798484,2000,1.5,4.0
# From MPEC 2021-N06
P/2017 K3 (Gasparovic),e,4.2732,354.2775,253.3058,5.585057,0.0746728,0.57900246,196.5074,08/05.0/2024,2000,g 14.5,4.0
# From MPEC 2021-P47
C/2017 K5 (PANSTARRS),h,03/26.4505/2020,82.2739,102.4432,172.0069,1.003645,7.682951,2000,5.0,4.0
# From MPEC 2022-OB6
C/2017 M4 (ATLAS),h,01/17.8449/2019,105.6231,66.0213,167.4910,1.000594,3.242035,2000,6.0,4.0
# From MPC114599
P/2017 P1 (PANSTARRS),e,7.6878,221.4626,122.8129,7.920915,0.0442121,0.30969658,98.8621,08/05.0/2024,2000,g 10.0,4.0
# From MPEC 2022-OB6
P/2017 S8 (PANSTARRS),e,29.8426,191.5274,254.8830,2.778788,0.2127751,0.39105377,146.7232,08/05.0/2024,2000,g 16.0,4.0
# From MPEC 2024-A43
C/2017 T2 (PANSTARRS),e,57.2930,64.4512,92.8119,1503,0.0000169,0.99893078,0.0000,05/05.4183/2020,2000,g  5.0,4.0
# From MPC115882
P/2017 TW13 (Lemmon),e,44.8720,322.1804,119.9545,7.135764,0.0517063,0.71073597,115.5508,08/05.0/2024,2000,g 15.0,2.0
# From MPEC 2022-K19
P/2017 U3 (PANSTARRS),e,15.9188,165.0758,296.2863,4.921075,0.0902847,0.10054856,175.1281,08/05.0/2024,2000,g 11.0,4.0
# From MPEC 2023-A50
C/2017 U7 (PANSTARRS),h,09/16.1460/2019,142.6348,276.3082,326.4589,1.002707,6.425343,2000,8.3,2.0
# From MPC114601
P/2017 W3 (Gibbs),e,18.1784,210.1213,327.7675,7.822002,0.0450534,0.50662789,105.9635,08/05.0/2024,2000,g 10.5,4.0
# From MPEC 2024-DC6
C/2017 Y2 (PANSTARRS),h,11/05.0886/2020,128.4493,66.0354,147.8790,1.001442,4.626846,2000,15.0,4.0
# From MPC111770
P/2017 Y3 (Leonard),e,27.6041,153.9517,67.4321,9.802090,0.0321163,0.86937396,76.1586,08/05.0/2024,2000,g 16.5,4.0
# From MPEC 2021-P47
C/2018 A3 (ATLAS),e,139.5738,194.3233,86.4320,344.3107,0.0001543,0.99045190,0.0000,01/09.2231/2019,2000,g  8.5,4.0
# From MPC109147
P/2018 A5 (PANSTARRS),e,23.6212,87.7832,359.5185,5.625295,0.0738731,0.52433138,184.9471,08/05.0/2024,2000,g 15.0,4.0
# From MPEC 2024-JU4
C/2018 A6 (Gibbs),e,77.1184,340.4223,264.3030,15.00741,0.0169530,0.79886380,31.4070,08/05.0/2024,2000,g  9.0,4.0
# From MPC114601
P/2018 C1 (Lemmon-Read),e,5.1049,270.2560,235.7380,5.650530,0.0733788,0.53238654,172.7738,08/05.0/2024,2000,g 13.5,4.0
# From MPEC 2022-M88
C/2018 DO4 (Lemmon),e,160.4476,251.3885,176.3594,25.45821,0.0076729,0.90501783,13.9269,08/05.0/2024,2000,g 11.0,4.0
# From MPEC 2021-R75
C/2018 F1 (Grauer),e,46.1283,177.2970,71.4987,222.5897,0.0002968,0.98654367,0.0000,12/10.4646/2018,2000,g 11.5,4.0
# From MPEC 2023-A50
C/2018 F4 (PANSTARRS),e,78.1002,26.5215,263.2052,2159,0.0000098,0.99840340,0.0000,12/01.5800/2019,2000,g 11.0,6.0
# From MPEC 2021-Y10
C/2018 F4-A,e,78.1004,26.5217,263.2020,2090,0.0000103,0.99835044,0.0000,12/01.5681/2019,2000,g 11.0,6.0
# From MPEC 2023-D41
C/2018 F4-B,e,78.1014,26.5212,263.1877,2209,0.0000095,0.99843922,0.0000,12/01.5048/2019,2000,g 11.0,6.0
# From MPC114602
P/2018 H2 (PANSTARRS),e,7.4211,67.9740,119.4053,4.400100,0.1067850,0.54037472,257.9583,08/05.0/2024,2000,g 16.6,2.0
# From MPEC 2021-R75
C/2018 KJ3 (Lemmon),e,136.6305,91.6890,217.5828,785.0221,0.0000448,0.99538868,0.0000,09/09.4989/2019,2000,g 12.2,2.0
# From MPC114602
P/2018 L1 (PANSTARRS),e,10.5786,268.5884,17.9850,3.656502,0.1409630,0.48126389,295.4531,08/05.0/2024,2000,g 15.0,4.0
# From MPEC 2021-P47
C/2018 L2 (ATLAS),e,67.1999,242.9830,56.3504,243.2197,0.0002598,0.99292771,0.0000,11/30.5926/2018,2000,g 10.0,4.0
# From MPC114603
P/2018 L4 (PANSTARRS),e,26.5959,145.2184,140.5483,4.947720,0.0895564,0.65827248,197.0289,08/05.0/2024,2000,g 17.5,4.0
# From MPC119996
P/2018 L5 (Leonard),e,2.2090,219.0574,93.9206,3.629087,0.1425634,0.36378769,325.5115,08/05.0/2024,2000,g 14.5,4.0
# From MPEC 2022-YN2
C/2018 N2 (ASASSN),h,11/11.9301/2019,77.5359,24.5031,25.2899,1.001767,3.132852,2000,6.0,4.0
# From MPC114603
P/2018 P4 (PANSTARRS),e,23.0924,353.1491,8.4953,6.692805,0.0569235,0.44969546,119.3403,08/05.0/2024,2000,g 12.0,4.0
# From MPEC 2021-P47
C/2018 P5 (PANSTARRS),e,7.2459,216.2532,132.0357,12.85188,0.0213921,0.64220128,42.4810,08/05.0/2024,2000,g 11.0,4.0
# From MPC118841
C/2018 R3 (Lemmon),e,69.7036,324.4641,112.7413,1686,0.0000142,0.99923936,0.0000,06/08.0961/2019,2000,g  9.5,4.0
# From MPC114603
C/2018 R5 (Lemmon),e,103.7159,171.2234,178.2612,22.97431,0.0089504,0.84163783,18.1994,08/05.0/2024,2000,g 11.5,4.0
# From MPEC 2022-QC6
C/2018 S2 (TESS),e,64.1151,85.1123,290.8944,14.37005,0.0180933,0.61838498,37.9711,08/05.0/2024,2000,g  7.5,4.0
# From MPEC 2024-JU4
C/2018 U1 (Lemmon),h,11/02.6368/2021,108.3255,75.5139,180.4137,1.000820,4.989497,2000,5.0,4.0
# From MPC114604
C/2018 V1 (Machholz-Fujikawa-Iwamoto),h,12/03.4090/2018,144.1689,129.4276,89.4486,1.000429,0.391792,2000,12.0,4.0
# From MPC115884
C/2018 V2 (ATLAS),e,159.1653,357.1530,319.2009,25.19129,0.0077952,0.90107387,16.2093,08/05.0/2024,2000,g 15.0,4.0
# From MPEC 2023-CD7
P/2018 VN2 (Leonard),e,18.2600,226.4411,138.9245,4.061567,0.1204103,0.47838374,270.8192,08/05.0/2024,2000,g 15.0,4.0
# From MPEC 2022-VC5
A/2018 V3,e,164.9309,308.7821,3.6053,128.3241,0.0006780,0.98960065,0.0000,09/10.1606/2019,2000,g 15.7,2.0
# From MPEC 2022-M21
C/2018 V4 (Africano),e,69.0409,78.2497,0.0295,210.9900,0.0003216,0.98484001,0.0000,03/02.2179/2019,2000,g 12.5,4.0
# From MPEC 2021-P47
P/2018 V5 (Trujillo-Sheppard),e,10.5833,171.3143,260.7700,8.973723,0.0366644,0.47595298,78.1082,08/05.0/2024,2000,g 12.5,4.0
# From MPEC 2021-P47
C/2018 W1 (Catalina),e,83.4222,233.6568,251.1885,21.72152,0.0097357,0.93764606,18.6045,08/05.0/2024,2000,g 15.5,2.0
# From MPEC 2021-P47
C/2018 W2 (Africano),h,09/05.4346/2019,116.5835,181.9006,158.1931,1.000859,1.465360,2000,9.5,4.0
# From MPEC 2023-M14
A/2018 W3,e,104.8392,251.6902,313.9186,716.0246,0.0000514,0.99401346,0.0000,04/13.1135/2021,2000,g 10.7,2.0
# From MPC119996
C/2018 X2 (Fitzsimmons),e,23.0914,340.7073,161.9558,139.4835,0.0005983,0.98484800,0.0000,07/09.0898/2019,2000,g 12.0,4.0
# From MPC114604
C/2018 X3 (PANSTARRS),e,43.4239,78.7991,359.8112,12.39766,0.0225785,0.78291672,46.1216,08/05.0/2024,2000,g 14.5,4.0
# From MPEC 2024-A43
C/2018 Y1 (Iwamoto),e,160.4538,147.3925,357.8629,126.7160,0.0006910,0.98983175,0.0000,02/04.2639/2019,2000,g 11.5,4.0
# From MPC114605
P/2018 Y2 (Africano),e,11.6914,297.1404,162.3159,7.454669,0.0484241,0.47991346,98.8059,08/05.0/2024,2000,g 11.5,4.0
# From MPC114605
P/2019 A1 (PANSTARRS),e,13.7641,312.2260,150.7455,5.113560,0.0852352,0.57002760,180.9433,08/05.0/2024,2000,g 16.0,4.0
# From MPEC 2021-P47
P/2019 A2 (ATLAS),e,14.8679,139.3890,323.8979,5.711092,0.0722147,0.38302819,150.3744,08/05.0/2024,2000,g 10.5,4.0
# From MPEC 2022-M21
P/2019 A3 (PANSTARRS),e,15.3722,31.3563,325.6755,3.145720,0.1766542,0.26655879,27.4236,08/05.0/2024,2000,g 16.0,4.0
# From MPEC 2022-L66
P/2019 A4 (PANSTARRS),e,13.3044,119.3592,343.1352,2.614543,0.2331366,0.08734182,121.1868,08/05.0/2024,2000,g 15.0,4.0
# From MPEC 2021-P47
C/2019 A5 (PANSTARRS),e,67.5481,146.5506,355.7807,21.48153,0.0098993,0.70621229,18.6750,08/05.0/2024,2000,g  9.5,4.0
# From MPC114605
P/2019 A6 (Lemmon-PANSTARRS),e,33.2872,280.1823,156.2194,5.356790,0.0794963,0.64039314,172.1119,08/05.0/2024,2000,g 16.0,4.0
# From MPC115884
P/2019 A8 (PANSTARRS),e,2.2116,114.3295,63.5669,4.345124,0.1088180,0.22616564,248.1472,08/05.0/2024,2000,g 16.0,4.0
# From MPC118842
C/2019 A9 (PANSTARRS),e,84.3643,278.4539,237.8964,39.20762,0.0040147,0.96355881,7.3731,08/05.0/2024,2000,g 15.0,4.0
# From MPEC 2022-L66
C/2019 B1 (Africano),e,123.4582,290.2687,174.7872,138.4314,0.0006051,0.98844640,0.0000,03/18.4722/2019,2000,g 16.0,4.0
# From MPC115885
P/2019 B2 (Groeller),e,16.9661,175.7060,0.7406,3.923694,0.1268123,0.35801659,241.5719,08/05.0/2024,2000,g 14.5,4.0
# From MPEC 2024-JU4
C/2019 B3 (PANSTARRS),e,66.5682,358.4150,263.9787,4843,0.0000029,0.99859033,0.0000,01/19.8466/2021,2000,g  5.5,4.0
# From MPEC 2021-P47
C/2019 C1 (ATLAS),e,36.0481,212.3873,319.0149,657.3827,0.0000585,0.99000585,0.0000,05/04.1339/2020,2000,g 10.0,4.0
# From MPEC 2022-O08
C/2019 D1 (Flewelling),e,33.9954,231.6465,70.7355,139.0840,0.0006009,0.98856299,0.0000,05/09.8229/2019,2000,g 13.0,4.0
# From MPEC 2024-P23
C/2019 E3 (ATLAS),e,84.3037,347.2166,280.7098,5647,0.0000023,0.99817366,0.0000,11/15.4643/2023,2000,g  2.5,4.0
# From MPEC 2024-GJ3
C/2019 F1 (ATLAS-Africano),h,06/21.8276/2021,54.2357,38.6638,251.3349,1.001048,3.608547,2000,5.5,4.0
# From MPEC 2021-P47
